$$SOE
2459580.500000000, A.D. 2022-Jan-01 00:00:00.0000, -4.009683071254281E+08, 2.294676026255733E+08, 2.808068989047499E+07,
2459587.500000000, A.D. 2022-Jan-08 00:00:00.0000, -4.068303490411515E+08, 2.213478682175773E+08, 2.659840593878157E+07,
2459594.500000000, A.D. 2022-Jan-15 00:00:00.0000, -4.124946381010278E+08, 2.131205092235748E+08, 2.510318914596842E+07,
2459601.500000000, A.D. 2022-Jan-22 00:00:00.0000, -4.179597905326062E+08, 2.047902349638328E+08, 2.359584981511420E+07,
2459608.500000000, A.D. 2022-Jan-29 00:00:00.0000, -4.232245321895959E+08, 1.963617404468729E+08, 2.207719290538968E+07,
2459615.500000000, A.D. 2022-Feb-05 00:00:00.0000, -4.282876983567697E+08, 1.878397037584101E+08, 2.054801791881055E+07,
2459622.500000000, A.D. 2022-Feb-12 00:00:00.0000, -4.331482313949491E+08, 1.792287825108541E+08, 1.900911852201778E+07,
2459629.500000000, A.D. 2022-Feb-19 00:00:00.0000, -4.378051775516287E+08, 1.705336117151610E+08, 1.746128221714520E+07,
2459636.500000000, A.D. 2022-Feb-26 00:00:00.0000, -4.422576842526659E+08, 1.617588023452111E+08, 1.590529012194179E+07,
2459643.500000000, A.D. 2022-Mar-05 00:00:00.0000, -4.465049977205269E+08, 1.529089399724902E+08, 1.434191679312678E+07,
2459650.500000000, A.D. 2022-Mar-12 00:00:00.0000, -4.505464607016936E+08, 1.439885834006365E+08, 1.277193006626234E+07,
2459657.500000000, A.D. 2022-Mar-19 00:00:00.0000, -4.543815102363393E+08, 1.350022633237306E+08, 1.119609090688172E+07,
2459664.500000000, A.D. 2022-Mar-26 00:00:00.0000, -4.580096754514783E+08, 1.259544809986776E+08, 9.615153269288644E+06,
2459671.500000000, A.D. 2022-Apr-02 00:00:00.0000, -4.614305753126948E+08, 1.168497068722843E+08, 8.029863951222517E+06,
2459678.500000000, A.D. 2022-Apr-09 00:00:00.0000, -4.646439160646358E+08, 1.076923791642784E+08, 6.440962418860935E+06,
2459685.500000000, A.D. 2022-Apr-16 00:00:00.0000, -4.676494880047589E+08, 9.848690305658978E+07, 4.849180621938065E+06,
2459692.500000000, A.D. 2022-Apr-23 00:00:00.0000, -4.704471628606722E+08, 8.923765156903711E+07, 3.255243003107149E+06,
2459699.500000000, A.D. 2022-Apr-30 00:00:00.0000, -4.730368936436294E+08, 7.994896587219380E+07, 1.659866688729677E+06,
2459706.500000000, A.D. 2022-May-07 00:00:00.0000, -4.754187139174706E+08, 7.062515306121092E+07, 6.376141809980944E+04,
2459713.500000000, A.D. 2022-May-14 00:00:00.0000, -4.775927350927975E+08, 6.127048442580426E+07, -1.532370668623522E+06,
2459720.500000000, A.D. 2022-May-21 00:00:00.0000, -4.795591437767270E+08, 5.188919497043832E+07, -3.127835136064196E+06,
2459727.500000000, A.D. 2022-May-28 00:00:00.0000, -4.813181996583576E+08, 4.248548322157469E+07, -4.721945288008315E+06,
2459734.500000000, A.D. 2022-Jun-04 00:00:00.0000, -4.828702336541658E+08, 3.306351100595031E+07, -6.314022182152756E+06,
2459741.500000000, A.D. 2022-Jun-11 00:00:00.0000, -4.842156461690879E+08, 2.362740319913052E+07, -7.903394638847412E+06,
2459748.500000000, A.D. 2022-Jun-18 00:00:00.0000, -4.853549054346132E+08, 1.418124745458686E+07, -9.489399246760558E+06,
2459755.500000000, A.D. 2022-Jun-25 00:00:00.0000, -4.862885458944203E+08, 4.729093877118209E+06, -1.107138037130483E+07,
2459762.500000000, A.D. 2022-Jul-02 00:00:00.0000, -4.870171665034486E+08, -4.725045427992279E+06, -1.264869018387737E+07,
2459769.500000000, A.D. 2022-Jul-09 00:00:00.0000, -4.875414285498955E+08, -1.417719675584198E+07, -1.422068873357925E+07,
2459776.500000000, A.D. 2022-Jul-16 00:00:00.0000, -4.878620530547733E+08, -2.362342407276412E+07, -1.578674396813025E+07,
2459783.500000000, A.D. 2022-Jul-23 00:00:00.0000, -4.879798199470567E+08, -3.305982708262112E+07, -1.734623149625265E+07,
2459790.500000000, A.D. 2022-Jul-30 00:00:00.0000, -4.878955689312176E+08, -4.248254144552715E+07, -1.889853437369764E+07,
2459797.500000000, A.D. 2022-Aug-06 00:00:00.0000, -4.876101984490117E+08, -5.188774050267449E+07, -2.044304319028968E+07,
2459804.500000000, A.D. 2022-Aug-13 00:00:00.0000, -4.871246635571344E+08, -6.127163575450326E+07, -2.197915615732837E+07,
2459811.500000000, A.D. 2022-Aug-20 00:00:00.0000, -4.864399742885239E+08, -7.063047659855181E+07, -2.350627909256165E+07,
2459818.500000000, A.D. 2022-Aug-27 00:00:00.0000, -4.855571944291072E+08, -7.996055005665413E+07, -2.502382536860783E+07,
2459825.500000000, A.D. 2022-Sep-03 00:00:00.0000, -4.844774404624062E+08, -8.925818060440405E+07, -2.653121585690273E+07,
2459832.500000000, A.D. 2022-Sep-10 00:00:00.0000, -4.832018805918432E+08, -9.851973008095044E+07, -2.802787887375441E+07,
2459839.500000000, A.D. 2022-Sep-17 00:00:00.0000, -4.817317338110013E+08, -1.077415976827808E+08, -2.951325013166389E+07,
2459846.500000000, A.D. 2022-Sep-24 00:00:00.0000, -4.800682689610356E+08, -1.169202200941859E+08, -3.098677270600612E+07,
2459853.500000000, A.D. 2022-Oct-01 00:00:00.0000, -4.782128035348083E+08, -1.260520717782040E+08, -3.244789704135576E+07,
2459860.500000000, A.D. 2022-Oct-08 00:00:00.0000, -4.761667018195455E+08, -1.351336649070343E+08, -3.389608099256146E+07,
2459867.500000000, A.D. 2022-Oct-15 00:00:00.0000, -4.739313733080723E+08, -1.441615477336537E+08, -3.533078971739919E+07,
2459874.500000000, A.D. 2022-Oct-22 00:00:00.0000, -4.715082735581214E+08, -1.531323030901484E+08, -3.675149535861144E+07,
2459881.500000000, A.D. 2022-Oct-29 00:00:00.0000, -4.688989050008909E+08, -1.620425496085182E+08, -3.815767695685945E+07,
2459888.500000000, A.D. 2022-Nov-05 00:00:00.0000, -4.661048155987402E+08, -1.708889429246413E+08, -3.954882056355124E+07,
2459895.500000000, A.D. 2022-Nov-12 00:00:00.0000, -4.631275973154688E+08, -1.796681755999874E+08, -4.092441927007909E+07,
2459902.500000000, A.D. 2022-Nov-19 00:00:00.0000, -4.599688851178622E+08, -1.883769767175954E+08, -4.228397316599345E+07,
2459909.500000000, A.D. 2022-Nov-26 00:00:00.0000, -4.566303562467677E+08, -1.970121115517963E+08, -4.362698928334058E+07,
2459916.500000000, A.D. 2022-Dec-03 00:00:00.0000, -4.531137295922723E+08, -2.055703813244883E+08, -4.495298154391639E+07,
2459923.500000000, A.D. 2022-Dec-10 00:00:00.0000, -4.494207651273708E+08, -2.140486230299745E+08, -4.626147071240823E+07,
2459930.500000000, A.D. 2022-Dec-17 00:00:00.0000, -4.455532633746259E+08, -2.224437093540147E+08, -4.755198435987587E+07,
2459937.500000000, A.D. 2022-Dec-24 00:00:00.0000, -4.415130647953683E+08, -2.307525487537517E+08, -4.882405685304844E+07,
2459944.500000000, A.D. 2022-Dec-31 00:00:00.0000, -4.373020487426729E+08, -2.389720855919333E+08, -5.007722939348823E+07,
2459951.500000000, A.D. 2023-Jan-07 00:00:00.0000, -4.329221318541585E+08, -2.470992993639139E+08, -5.131105003921928E+07,
2459958.500000000, A.D. 2023-Jan-14 00:00:00.0000, -4.283752678501109E+08, -2.551312025215951E+08, -5.252507348776104E+07,
2459965.500000000, A.D. 2023-Jan-21 00:00:00.0000, -4.236634493806016E+08, -2.630648400685884E+08, -5.371886082084756E+07,
2459972.500000000, A.D. 2023-Jan-28 00:00:00.0000, -4.187887082537139E+08, -2.708972911238060E+08, -5.489197956356722E+07,
2459979.500000000, A.D. 2023-Feb-04 00:00:00.0000, -4.137531142532720E+08, -2.786256694263277E+08, -5.604400379142487E+07,
2459986.500000000, A.D. 2023-Feb-11 00:00:00.0000, -4.085587743399643E+08, -2.862471229752972E+08, -5.717451413628584E+07,
2459993.500000000, A.D. 2023-Feb-18 00:00:00.0000, -4.032078322975154E+08, -2.937588336287392E+08, -5.828309775256003E+07,
2460000.500000000, A.D. 2023-Feb-25 00:00:00.0000, -3.977024685599939E+08, -3.011580168242726E+08, -5.936934828100309E+07,
2460007.500000000, A.D. 2023-Mar-04 00:00:00.0000, -3.920449001174163E+08, -3.084419214040337E+08, -6.043286581808248E+07,
2460014.500000000, A.D. 2023-Mar-11 00:00:00.0000, -3.862373804704491E+08, -3.156078295441210E+08, -6.147325689352264E+07,
2460021.500000000, A.D. 2023-Mar-18 00:00:00.0000, -3.802821995864278E+08, -3.226530568386763E+08, -6.249013446434641E+07,
2460028.500000000, A.D. 2023-Mar-25 00:00:00.0000, -3.741816836525692E+08, -3.295749525864055E+08, -6.348311794783834E+07,
2460035.500000000, A.D. 2023-Apr-01 00:00:00.0000, -3.679381942010235E+08, -3.363708998866687E+08, -6.445183330012339E+07,
2460042.500000000, A.D. 2023-Apr-08 00:00:00.0000, -3.615541272201368E+08, -3.430383143204760E+08, -6.539591298366040E+07,
2460049.500000000, A.D. 2023-Apr-15 00:00:00.0000, -3.550319145875567E+08, -3.495746423229567E+08, -6.631499569955570E+07,
2460056.500000000, A.D. 2023-Apr-22 00:00:00.0000, -3.483740260150425E+08, -3.559773623004717E+08, -6.720872630020285E+07,
2460063.500000000, A.D. 2023-Apr-29 00:00:00.0000, -3.415829687699199E+08, -3.622439862407473E+08, -6.807675594930448E+07,
2460070.500000000, A.D. 2023-May-06 00:00:00.0000, -3.346612869330181E+08, -3.683720600351034E+08, -6.891874222232084E+07,
2460077.500000000, A.D. 2023-May-13 00:00:00.0000, -3.276115611685922E+08, -3.743591634062249E+08, -6.973434913070923E+07,
2460084.500000000, A.D. 2023-May-20 00:00:00.0000, -3.204364087704754E+08, -3.802029099330227E+08, -7.052324713166194E+07,
2460091.500000000, A.D. 2023-May-27 00:00:00.0000, -3.131384837896459E+08, -3.859009472031713E+08, -7.128511314386314E+07,
2460098.500000000, A.D. 2023-Jun-03 00:00:00.0000, -3.057204771849045E+08, -3.914509570687848E+08, -7.201963057298699E+07,
2460105.500000000, A.D. 2023-Jun-10 00:00:00.0000, -2.981851169726199E+08, -3.968506560201645E+08, -7.272648935080975E+07,
2460112.500000000, A.D. 2023-Jun-17 00:00:00.0000, -2.905351682862567E+08, -4.020977957383037E+08, -7.340538600141433E+07,
2460119.500000000, A.D. 2023-Jun-24 00:00:00.0000, -2.827734330250612E+08, -4.071901637706029E+08, -7.405602375947085E+07,
2460126.500000000, A.D. 2023-Jul-01 00:00:00.0000, -2.749027488375046E+08, -4.121255835015450E+08, -7.467811269612035E+07,
2460133.500000000, A.D. 2023-Jul-08 00:00:00.0000, -2.669259891115152E+08, -4.169019125962645E+08, -7.527136963167503E+07,
2460140.500000000, A.D. 2023-Jul-15 00:00:00.0000, -2.588460652459496E+08, -4.215170427477457E+08, -7.583551794946897E+07,
$$EOE